CCSDS_OMM_VERS = 2.0
CREATION_DATE  = 
ORIGINATOR     = 

OBJECT_NAME    = STARLINK-37004
OBJECT_ID      = 2026-042W
CENTER_NAME    = EARTH
REF_FRAME      = TEME
TIME_SYSTEM    = UTC
MEAN_ELEMENT_THEORY = SGP/SGP4

EPOCH          = 2026-03-22T19:56:27.123072
MEAN_MOTION    = 15.81051844
ECCENTRICITY   = .00010488
INCLINATION    = 53.1573
RA_OF_ASC_NODE = 128.7429
ARG_OF_PERICENTER = 99.0566
MEAN_ANOMALY   = 261.0575

EPHEMERIS_TYPE = 0
CLASSIFICATION_TYPE = U
NORAD_CAT_ID   = 68089
ELEMENT_SET_NO = 999
REV_AT_EPOCH   = 416
BSTAR          = .11682065E-2
MEAN_MOTION_DOT = .2383E-2
MEAN_MOTION_DDOT = 0

CCSDS_OMM_VERS = 2.0
CREATION_DATE  = 
ORIGINATOR     = 

OBJECT_NAME    = STARLINK-36320
OBJECT_ID      = 2026-042X
CENTER_NAME    = EARTH
REF_FRAME      = TEME
TIME_SYSTEM    = UTC
MEAN_ELEMENT_THEORY = SGP/SGP4

EPOCH          = 2026-03-22T20:00:01.999872
MEAN_MOTION    = 15.75465039
ECCENTRICITY   = .00007448
INCLINATION    = 53.1582
RA_OF_ASC_NODE = 128.8300
ARG_OF_PERICENTER = 118.0363
MEAN_ANOMALY   = 206.9128

EPHEMERIS_TYPE = 0
CLASSIFICATION_TYPE = U
NORAD_CAT_ID   = 68090
ELEMENT_SET_NO = 999
REV_AT_EPOCH   = 415
BSTAR          = -.18150051E-2
MEAN_MOTION_DOT = -.272751E-2
MEAN_MOTION_DDOT = 0

CCSDS_OMM_VERS = 2.0
CREATION_DATE  = 
ORIGINATOR     = 

OBJECT_NAME    = STARLINK-36324
OBJECT_ID      = 2026-042Y
CENTER_NAME    = EARTH
REF_FRAME      = TEME
TIME_SYSTEM    = UTC
MEAN_ELEMENT_THEORY = SGP/SGP4

EPOCH          = 2026-03-22T20:00:01.999872
MEAN_MOTION    = 15.75465224
ECCENTRICITY   = .00017344
INCLINATION    = 53.1582
RA_OF_ASC_NODE = 128.8870
ARG_OF_PERICENTER = 142.8337
MEAN_ANOMALY   = 154.4929

EPHEMERIS_TYPE = 0
CLASSIFICATION_TYPE = U
NORAD_CAT_ID   = 68091
ELEMENT_SET_NO = 999
REV_AT_EPOCH   = 415
BSTAR          = -.20515722E-2
MEAN_MOTION_DOT = -.30705E-2
MEAN_MOTION_DDOT = 0

CCSDS_OMM_VERS = 2.0
CREATION_DATE  = 
ORIGINATOR     = 

OBJECT_NAME    = STARLINK-36896
OBJECT_ID      = 2026-042Z
CENTER_NAME    = EARTH
REF_FRAME      = TEME
TIME_SYSTEM    = UTC
MEAN_ELEMENT_THEORY = SGP/SGP4

EPOCH          = 2026-03-22T20:00:01.999872
MEAN_MOTION    = 15.75321968
ECCENTRICITY   = .00013948
INCLINATION    = 53.1588
RA_OF_ASC_NODE = 128.7769
ARG_OF_PERICENTER = 71.9246
MEAN_ANOMALY   = 278.9035

EPHEMERIS_TYPE = 0
CLASSIFICATION_TYPE = U
NORAD_CAT_ID   = 68092
ELEMENT_SET_NO = 999
REV_AT_EPOCH   = 416
BSTAR          = -.10221575E-2
MEAN_MOTION_DOT = -.155053E-2
MEAN_MOTION_DDOT = 0

CCSDS_OMM_VERS = 2.0
CREATION_DATE  = 
ORIGINATOR     = 

OBJECT_NAME    = STARLINK-36251
OBJECT_ID      = 2026-042AA
CENTER_NAME    = EARTH
REF_FRAME      = TEME
TIME_SYSTEM    = UTC
MEAN_ELEMENT_THEORY = SGP/SGP4

EPOCH          = 2026-03-22T19:51:02.669472
MEAN_MOTION    = 15.80995082
ECCENTRICITY   = .00014125
INCLINATION    = 53.1573
RA_OF_ASC_NODE = 128.7172
ARG_OF_PERICENTER = 81.2402
MEAN_ANOMALY   = 278.8781

EPHEMERIS_TYPE = 0
CLASSIFICATION_TYPE = U
NORAD_CAT_ID   = 68093
ELEMENT_SET_NO = 999
REV_AT_EPOCH   = 415
BSTAR          = .14439561E-2
MEAN_MOTION_DOT = .295935E-2
MEAN_MOTION_DDOT = 0

CCSDS_OMM_VERS = 2.0
CREATION_DATE  = 
ORIGINATOR     = 

OBJECT_NAME    = STARLINK-36787
OBJECT_ID      = 2026-042AB
CENTER_NAME    = EARTH
REF_FRAME      = TEME
TIME_SYSTEM    = UTC
MEAN_ELEMENT_THEORY = SGP/SGP4

EPOCH          = 2026-03-22T20:00:01.999872
MEAN_MOTION    = 15.75273848
ECCENTRICITY   = .00008586
INCLINATION    = 53.1586
RA_OF_ASC_NODE = 128.8332
ARG_OF_PERICENTER = 94.3120
MEAN_ANOMALY   = 228.9170

EPHEMERIS_TYPE = 0
CLASSIFICATION_TYPE = U
NORAD_CAT_ID   = 68094
ELEMENT_SET_NO = 999
REV_AT_EPOCH   = 415
BSTAR          = -.60820085E-3
MEAN_MOTION_DOT = -.92989E-3
MEAN_MOTION_DDOT = 0

CCSDS_OMM_VERS = 2.0
CREATION_DATE  = 
ORIGINATOR     = 

OBJECT_NAME    = STARLINK-36790
OBJECT_ID      = 2026-042AC
CENTER_NAME    = EARTH
REF_FRAME      = TEME
TIME_SYSTEM    = UTC
MEAN_ELEMENT_THEORY = SGP/SGP4

EPOCH          = 2026-03-22T19:52:07.237056
MEAN_MOTION    = 15.81016600
ECCENTRICITY   = .00021628
INCLINATION    = 53.1573
RA_OF_ASC_NODE = 128.7220
ARG_OF_PERICENTER = 59.0436
MEAN_ANOMALY   = 301.0799

EPHEMERIS_TYPE = 0
CLASSIFICATION_TYPE = U
NORAD_CAT_ID   = 68095
ELEMENT_SET_NO = 999
REV_AT_EPOCH   = 415
BSTAR          = .15074676E-2
MEAN_MOTION_DOT = .309794E-2
MEAN_MOTION_DDOT = 0

CCSDS_OMM_VERS = 2.0
CREATION_DATE  = 
ORIGINATOR     = 

OBJECT_NAME    = STARLINK-36328
OBJECT_ID      = 2026-042AD
CENTER_NAME    = EARTH
REF_FRAME      = TEME
TIME_SYSTEM    = UTC
MEAN_ELEMENT_THEORY = SGP/SGP4

EPOCH          = 2026-03-22T15:14:41.413056
MEAN_MOTION    = 15.81009846
ECCENTRICITY   = .00009
INCLINATION    = 53.1577
RA_OF_ASC_NODE = 129.6525
ARG_OF_PERICENTER = 69.3539
MEAN_ANOMALY   = 290.7580

EPHEMERIS_TYPE = 0
CLASSIFICATION_TYPE = U
NORAD_CAT_ID   = 68096
ELEMENT_SET_NO = 999
REV_AT_EPOCH   = 412
BSTAR          = .11382919E-2
MEAN_MOTION_DOT = .231548E-2
MEAN_MOTION_DDOT = 0

CCSDS_OMM_VERS = 2.0
CREATION_DATE  = 
ORIGINATOR     = 

OBJECT_NAME    = STARLINK-36853
OBJECT_ID      = 2026-042AE
CENTER_NAME    = EARTH
REF_FRAME      = TEME
TIME_SYSTEM    = UTC
MEAN_ELEMENT_THEORY = SGP/SGP4

EPOCH          = 2026-03-22T19:49:58.240992
MEAN_MOTION    = 15.81020834
ECCENTRICITY   = .00013544
INCLINATION    = 53.1574
RA_OF_ASC_NODE = 128.7119
ARG_OF_PERICENTER = 84.4252
MEAN_ANOMALY   = 275.6926

EPHEMERIS_TYPE = 0
CLASSIFICATION_TYPE = U
NORAD_CAT_ID   = 68097
ELEMENT_SET_NO = 999
REV_AT_EPOCH   = 415
BSTAR          = .19168527E-2
MEAN_MOTION_DOT = .398309E-2
MEAN_MOTION_DDOT = 0

CCSDS_OMM_VERS = 2.0
CREATION_DATE  = 
ORIGINATOR     = 

OBJECT_NAME    = GLOBAL-34
OBJECT_ID      = 2026-043A
CENTER_NAME    = EARTH
REF_FRAME      = TEME
TIME_SYSTEM    = UTC
MEAN_ELEMENT_THEORY = SGP/SGP4

EPOCH          = 2026-03-22T18:40:02.738208
MEAN_MOTION    = 15.31704018
ECCENTRICITY   = .0004907
INCLINATION    = 42.0226
RA_OF_ASC_NODE = 359.9456
ARG_OF_PERICENTER = 10.5350
MEAN_ANOMALY   = 349.5590

EPHEMERIS_TYPE = 0
CLASSIFICATION_TYPE = U
NORAD_CAT_ID   = 68098
ELEMENT_SET_NO = 999
REV_AT_EPOCH   = 257
BSTAR          = .48345155E-3
MEAN_MOTION_DOT = .14902E-3
MEAN_MOTION_DDOT = 0

CCSDS_OMM_VERS = 2.0
CREATION_DATE  = 
ORIGINATOR     = 

OBJECT_NAME    = STARLINK-37022
OBJECT_ID      = 2026-044A
CENTER_NAME    = EARTH
REF_FRAME      = TEME
TIME_SYSTEM    = UTC
MEAN_ELEMENT_THEORY = SGP/SGP4

EPOCH          = 2026-03-22T20:00:01.999872
MEAN_MOTION    = 15.75199119
ECCENTRICITY   = .0001663
INCLINATION    = 97.2840
RA_OF_ASC_NODE = 42.6175
ARG_OF_PERICENTER = 97.8831
MEAN_ANOMALY   = 84.9902

EPHEMERIS_TYPE = 0
CLASSIFICATION_TYPE = U
NORAD_CAT_ID   = 68101
ELEMENT_SET_NO = 999
REV_AT_EPOCH   = 351
BSTAR          = .1272332E-3
MEAN_MOTION_DOT = .18898E-3
MEAN_MOTION_DDOT = 0

CCSDS_OMM_VERS = 2.0
CREATION_DATE  = 
ORIGINATOR     = 

OBJECT_NAME    = STARLINK-37046
OBJECT_ID      = 2026-044B
CENTER_NAME    = EARTH
REF_FRAME      = TEME
TIME_SYSTEM    = UTC
MEAN_ELEMENT_THEORY = SGP/SGP4

EPOCH          = 2026-03-22T20:00:01.999872
MEAN_MOTION    = 15.75202462
ECCENTRICITY   = .00015958
INCLINATION    = 97.2841
RA_OF_ASC_NODE = 42.6209
ARG_OF_PERICENTER = 109.3758
MEAN_ANOMALY   = 79.5046

EPHEMERIS_TYPE = 0
CLASSIFICATION_TYPE = U
NORAD_CAT_ID   = 68102
ELEMENT_SET_NO = 999
REV_AT_EPOCH   = 351
BSTAR          = .93058798E-4
MEAN_MOTION_DOT = .13781E-3
MEAN_MOTION_DDOT = 0

CCSDS_OMM_VERS = 2.0
CREATION_DATE  = 
ORIGINATOR     = 

OBJECT_NAME    = STARLINK-37018
OBJECT_ID      = 2026-044C
CENTER_NAME    = EARTH
REF_FRAME      = TEME
TIME_SYSTEM    = UTC
MEAN_ELEMENT_THEORY = SGP/SGP4

EPOCH          = 2026-03-22T20:00:01.999872
MEAN_MOTION    = 15.75175034
ECCENTRICITY   = .0002026
INCLINATION    = 97.2842
RA_OF_ASC_NODE = 42.6232
ARG_OF_PERICENTER = 123.8698
MEAN_ANOMALY   = 73.0192

EPHEMERIS_TYPE = 0
CLASSIFICATION_TYPE = U
NORAD_CAT_ID   = 68103
ELEMENT_SET_NO = 999
REV_AT_EPOCH   = 346
BSTAR          = .32017876E-3
MEAN_MOTION_DOT = .47867E-3
MEAN_MOTION_DDOT = 0

CCSDS_OMM_VERS = 2.0
CREATION_DATE  = 
ORIGINATOR     = 

OBJECT_NAME    = STARLINK-37041
OBJECT_ID      = 2026-044D
CENTER_NAME    = EARTH
REF_FRAME      = TEME
TIME_SYSTEM    = UTC
MEAN_ELEMENT_THEORY = SGP/SGP4

EPOCH          = 2026-03-22T20:00:01.999872
MEAN_MOTION    = 15.75253410
ECCENTRICITY   = .00010913
INCLINATION    = 97.2838
RA_OF_ASC_NODE = 42.6265
ARG_OF_PERICENTER = 84.3134
MEAN_ANOMALY   = 118.5246

EPHEMERIS_TYPE = 0
CLASSIFICATION_TYPE = U
NORAD_CAT_ID   = 68104
ELEMENT_SET_NO = 999
REV_AT_EPOCH   = 346
BSTAR          = -.34398749E-3
MEAN_MOTION_DOT = -.5127E-3
MEAN_MOTION_DDOT = 0

CCSDS_OMM_VERS = 2.0
CREATION_DATE  = 
ORIGINATOR     = 

OBJECT_NAME    = STARLINK-37021
OBJECT_ID      = 2026-044E
CENTER_NAME    = EARTH
REF_FRAME      = TEME
TIME_SYSTEM    = UTC
MEAN_ELEMENT_THEORY = SGP/SGP4

EPOCH          = 2026-03-22T20:00:01.999872
MEAN_MOTION    = 15.75253286
ECCENTRICITY   = .00018593
INCLINATION    = 97.2842
RA_OF_ASC_NODE = 42.6287
ARG_OF_PERICENTER = 57.4417
MEAN_ANOMALY   = 153.3976

EPHEMERIS_TYPE = 0
CLASSIFICATION_TYPE = U
NORAD_CAT_ID   = 68105
ELEMENT_SET_NO = 999
REV_AT_EPOCH   = 346
BSTAR          = -.14533252E-3
MEAN_MOTION_DOT = -.21812E-3
MEAN_MOTION_DDOT = 0

